RADFXSAT (FOX-1B)       
1 43017U 17073E   24151.63324650  .00012520  00000+0  77706-3 0  9994
2 43017  97.5798  27.7428 0211199 352.9163   6.9083 14.93112713353047
EAGLESAT 1              
1 43018U 17073F   24152.50978201  .00034602  00000+0  16752-2 0  9997
2 43018  97.5979  37.3743 0175086 322.7404  36.1778 15.05937960353581
JILIN-1 04              
1 43022U 17074A   24152.49981531  .00010646  00000+0  49150-3 0  9992
2 43022  97.4861 244.3670 0005452 341.2450  18.8583 15.20383619359995
JILIN-1 05              
1 43023U 17074B   24152.50980321  .00008379  00000+0  38874-3 0  9992
2 43023  97.4886 244.8873 0006189 357.8816   2.2392 15.20280637360005
JILIN-1 06              
1 43024U 17074C   24152.50294793  .00006064  00000+0  30336-3 0  9998
2 43024  97.4881 243.7170 0009123   1.2062 358.9192 15.17754771359933
IRIDIUM 116             
1 43072U 17083C   24152.41276850  .00000462  00000+0  15783-3 0  9990
2 43072  86.3952 274.0750 0002158  94.6053 265.5390 14.34219396337138
IRIDIUM 130             
1 43073U 17083D   24151.89267521  .00000365  00000+0  12321-3 0  9994
2 43073  86.3961 274.4952 0002106  92.8356 267.3081 14.34219476337008
LKW-2                   
1 43080U 17084A   24152.57401123  .00030584  00000+0  12957-2 0  9997
2 43080  97.2227 213.6944 0001554 279.8352 201.2715 15.23094695357980
SUPERVIEW-1 03          
1 43099U 18002A   24152.51052434  .00028116  00000+0  82938-3 0  9994
2 43099  97.3752 232.7449 0004793 125.9212 234.2476 15.34951167354053
SUPERVIEW-1 04          
1 43100U 18002B   24152.51392772  .00033667  00000+0  95412-3 0  9997
2 43100  97.3775 233.3135 0001222 137.7182 222.4157 15.36183592354079
CARTOSAT-2F             
1 43111U 18004A   24152.50914080  .00010695  00000+0  50944-3 0  9999
2 43111  97.4320 212.2642 0001419 100.8092 259.3303 15.19308831353961
CARBONITE 2             
1 43115U 18004E   24152.19387345  .00018842  00000+0  45037-3 0  9995
2 43115  97.2691 223.3001 0005643 345.8434  14.2654 15.41522422355328
CORVUS BC3              
1 43118U 18004H   24152.47709541  .00558114  13224-3  13440-2 0  9994
2 43118  97.2769 238.7737 0009399 265.1381  94.8823 15.96370239356285
LKW-3                   
1 43146U 18006A   24152.54327788  .00013402  00000+0  57136-3 0  9995
2 43146  97.5695 286.8478 0003342 213.3591 146.7435 15.23060629354769
ASNARO-2                
1 43152U 18007A   24152.52026811  .00019407  00000+0  84149-3 0  9999
2 43152  97.4128 159.4686 0001453  67.6802 292.4588 15.22402077353817
XIAOXIANG-2             
1 43155U 18008A   24152.50488708  .00161447  00000+0  21411-2 0  9992
2 43155  97.2371 206.1987 0008359 147.1703 213.0074 15.57669051352305
ZHOU ENLAI              
1 43156U 18008B   24152.53202254  .00255520  00000+0  21570-2 0  9998
2 43156  97.2390 208.0136 0006139 170.4630 189.6750 15.68980882352338
QUANTUTONG 1            
1 43158U 18008D   24152.11701454  .00055336  00000+0  11414-2 0  9999
2 43158  97.2554 200.6840 0008821 149.8324 210.3435 15.45660598351832
JILIN-1 07              
1 43159U 18008E   24152.53409837  .00009257  00000+0  44861-3 0  9990
2 43159  97.2458 186.4450 0011596 181.3346 178.7860 15.18681731351046
JILIN-1 08              
1 43160U 18008F   24152.54185570  .00008846  00000+0  43223-3 0  9992
2 43160  97.2465 186.1831 0007999 191.2792 168.8265 15.18442174351037
LEMUR-2-URAMCHANSOL     
1 43183U 18014D   24151.68884919  .00018928  00000+0  10061-2 0  9996
2 43183  97.5901  56.3718 0014569  49.4138 310.8360 15.15240104346193
LEMUR-2-KADI            
1 43184U 18014E   24152.17254180  .00014997  00000+0  84963-3 0  9998
2 43184  97.5702  54.9052 0012337  39.1683 321.0438 15.13041232346199
S-NET D                 
1 43186U 18014G   24151.69424412  .00005508  00000+0  39836-3 0  9990
2 43186  97.5908  53.8428 0012061  69.5836 290.6684 15.04378739345878
S-NET B                 
1 43187U 18014H   24152.29505879  .00005763  00000+0  41648-3 0  9992
2 43187  97.5917  54.3812 0012815  63.4351 296.8187 15.04379068345966
S-NET A                 
1 43188U 18014J   24152.22752495  .00005843  00000+0  42209-3 0  9997
2 43188  97.5921  54.4262 0012693  64.2068 296.0466 15.04385898345959
S-NET C                 
1 43189U 18014K   24152.29721695  .00005576  00000+0  40291-3 0  9995
2 43189  97.5941  54.4389 0014419  57.1371 303.1241 15.04381966344512
GOMX-4B                 
1 43196U 18015E   24152.45449615  .00068825  00000+0  79250-3 0  9994
2 43196  97.6070 324.8105 0006536  14.7364 345.4082 15.61739364352913
GOMX-4A                 
1 43197U 18015F   24152.50472085  .00137829  00000+0  10178-2 0  9992
2 43197  97.5967 329.6998 0004206 351.6528   8.4665 15.72560061353257
PAZ                     
1 43215U 18020A   24152.55610382  .00004149  00000+0  20056-3 0  9993
2 43215  97.4456 159.6575 0001730  90.3050 269.8383 15.19168260347662
GOES 17                 
1 43226U 18022A   24152.51021433 -.00000087  00000+0  00000+0 0  9997
2 43226   0.0275 132.1597 0000577 328.3911 227.9095  1.00270779 22941
LKW-4                   
1 43236U 18025A   24152.37207548  .00012698  00000+0  53184-3 0  9993
2 43236  97.5562 284.4721 0003419 153.7419 206.3991 15.23675518345149
ZHUHAI-1 OHS-01         
1 43439U 18040A   24152.51978471  .00062310  00000+0  11143-2 0  9995
2 43439  97.1295 199.6012 0005368  24.4586 335.6919 15.49784376338966
ZHUHAI-1 OVS-02         
1 43440U 18040B   24152.54767217  .00040196  00000+0  10280-2 0  9993
2 43440  97.1284 199.6269 0006332  55.4705 304.7139 15.39305530338948
ZHUHAI-1 OHS-02         
1 43441U 18040C   24152.48575269  .00024077  00000+0  86442-3 0  9995
2 43441  97.1415 203.1074 0014173  34.1239 326.0909 15.28572395338943
ZHUHAI-1 OHS-04         
1 43443U 18040E   24152.52503792  .00060730  00000+0  10618-2 0  9991
2 43443  97.1366 201.0005 0002171  46.9031 313.2403 15.50445325338985
GAOFEN-6                
1 43484U 18048A   24152.49817638  .00000515  00000+0  81073-4 0  9997
2 43484  97.8638 227.3129 0012520  70.5132 289.7429 14.76460384323204
LUOJIA-1 01             
1 43485U 18048B   24152.47564286  .00003204  00000+0  41787-3 0  9999
2 43485  97.8747 231.5056 0011212  52.5180 307.7051 14.81193090323397
PAKTES 1A               
1 43529U 18056A   24152.55139314  .00004445  00000+0  43665-3 0  9991
2 43529  98.0329 274.3210 0025195  66.6340 293.7525 14.92461676320275
PRSS 1                  
1 43530U 18056B   24152.48158885  .00001615  00000+0  22449-3 0  9992
2 43530  97.8646 227.3367 0001209  89.6797 270.4553 14.79184392317921
HAIYANG-1C              
1 43609U 18068A   24152.44453349  .00000289  00000+0  11893-3 0  9998
2 43609  98.6063 220.8708 0009892 143.3955 216.7908 14.34098001300052
SSTL S1-4               
1 43618U 18071A   24152.50612554  .00002277  00000+0  21398-3 0  9994
2 43618  97.6058  39.5326 0007140 130.1093 230.0755 14.94874604311314
HAIYANG-2B              
1 43655U 18081A   24152.52134935  .00000041  00000+0  82946-4 0  9994
2 43655  99.3360 161.2521 0002238  99.6389 260.5016 13.79329083281996
CZ-4B R/B               
1 43656U 18081B   24151.56382162  .00000277  00000+0  10159-3 0  9992
2 43656  99.4457 356.5253 0205525 257.4052 100.4075 14.31226828292330
CFOSAT                  
1 43662U 18083A   24152.51405427  .00007051  00000+0  36788-3 0  9990
2 43662  97.3759 167.5650 0000711  69.2023 290.9286 15.16242036309372
2018-083B               
1 43663U 18083B   24152.53701236  .00098602  00000+0  14616-2 0  9997
2 43663  97.3261 185.3032 0002145 292.0092  68.0934 15.54902402310635
2018-083C               
1 43664U 18083C   24152.56264525  .00039879  00000+0  95472-3 0  9997
2 43664  97.3436 179.3550 0004921 339.9158  20.1894 15.41327301310365
2018-083D               
1 43665U 18083D   24152.50281746  .00041231  00000+0  95792-3 0  9996
2 43665  97.3433 180.2532 0005631 336.5754  23.5236 15.42220312310405
2018-083G               
1 43668U 18083G   24152.51804620  .00136109  00000+0  16432-2 0  9994
2 43668  97.3328 184.7435 0001780 265.3143  94.7911 15.60287349310777
TEN-KOH                 
1 43677U 18084G   24152.41962642  .00003858  00000+0  34946-3 0  9998
2 43677  98.0605 305.4625 0014950  74.8065 285.4807 14.95914932304212
DIWATA-2B               
1 43678U 18084H   24152.54488011  .00002060  00000+0  19271-3 0  9994
2 43678  98.0701 310.0488 0010377  86.7515 273.4892 14.95232947304434
STARS-AO                
1 43679U 18084J   24151.69735541  .00006550  00000+0  50568-3 0  9995
2 43679  98.0576 315.0119 0004250 137.4155 222.7398 15.01910395304647
AUTCUBE 2               
1 43681U 18084K   24152.41031497  .00005603  00000+0  46066-3 0  9994
2 43681  98.0682 312.6841 0009678  71.4457 288.7816 14.99538896304560
METOP-C                 
1 43689U 18087A   24152.45913062  .00000221  00000+0  12106-3 0  9995
2 43689  98.7241 211.9304 0003068 122.0091 238.1384 14.21481463288747
ES'HAIL 2               
1 43700U 18090A   24151.48385962  .00000148  00000+0  00000+0 0  9991
2 43700   0.0154 297.4954 0001991 170.5324 340.4726  1.00273915 20183
TIANPING 1B             
1 43714U 18094E   24152.56064727  .00021234  00000+0  51390-3 0  9994
2 43714  97.3700 170.5604 0007386 345.1053  14.9975 15.41111915308156
MOHAMMED VI-B           
1 43717U 18095A   24152.52542005  .00001469  00000+0  21530-3 0  9995
2 43717  97.9549 224.5661 0000853  87.5572 272.5736 14.77055256297803
HYSIS                   
1 43719U 18096A   24152.47636954  .00002144  00000+0  29934-3 0  9996
2 43719  97.8666 216.7586 0001938  55.8542 304.2853 14.78671804297079
COSMOS 2530             
1 43751U 18097A   24152.51853908  .00000045  00000+0  25267-3 0  9991
2 43751  82.5135 325.7353 0019217 222.6332 137.3257 12.42882215249620
COSMOS 2531             
1 43752U 18097B   24152.54574296  .00000055  00000+0  32826-3 0  9995
2 43752  82.5181 326.5041 0016260 240.4850 119.4609 12.42889421249621
